{
  "houses": [
    {
      "id": 1,
      "name": "Sheathbill, snowy",
      "ownerName": "Isacco",
      "address": "65396 Havey Hill",
      "areaCode": "7691613",
      "rent": 1620,
      "image": "https://robohash.org/rerumetfugit.png?size=100x100&set=set1",
      "married": true
    },
    {
      "id": 2,
      "name": "Drongo, fork-tailed",
      "ownerName": "Nils",
      "address": "82 Redwing Street",
      "areaCode": "2332",
      "rent": 5163,
      "image": "https://robohash.org/voluptatemutet.png?size=100x100&set=set1",
      "married": false
    },
    {
      "id": 3,
      "name": "Bee-eater, nubian",
      "ownerName": "Eamon",
      "address": "5073 Paget Drive",
      "areaCode": 34322,
      "rent": 8684,
      "image": "https://robohash.org/utinsint.png?size=100x100&set=set1",
      "married": true
    },
    {
      "id": 4,
      "name": "Stanley bustard",
      "ownerName": "Ebeneser",
      "address": "95 Jackson Center",
      "areaCode": "38204",
      "rent": 3995,
      "image": "https://robohash.org/iustoquiavero.png?size=100x100&set=set1",
      "married": true
    },
    {
      "id": 5,
      "name": "Water moccasin",
      "ownerName": "Lorry",
      "address": "8 Grasskamp Point",
      "areaCode": "606525",
      "rent": 7892,
      "image": "https://robohash.org/reiciendisblanditiisest.png?size=100x100&set=set1",
      "married": true
    },
    {
      "id": 6,
      "name": "Badger, eurasian",
      "ownerName": "Bald",
      "address": "94 Crownhardt Pass",
      "areaCode": "677382",
      "rent": 2801,
      "image": "https://robohash.org/possimusdoloresquia.png?size=100x100&set=set1",
      "married": false
    },
    {
      "id": 7,
      "name": "Meerkat, red",
      "ownerName": "Antonino",
      "address": "68 Susan Alley",
      "areaCode": "544038",
      "rent": 9144,
      "image": "https://robohash.org/architectoquiquo.png?size=100x100&set=set1",
      "married": false
    },
    {
      "id": 8,
      "name": "Lemur, ring-tailed",
      "ownerName": "Greggory",
      "address": "2141 Magdeline Alley",
      "areaCode": "35525",
      "rent": 9249,
      "image": "https://robohash.org/omnisetquaerat.png?size=100x100&set=set1",
      "married": false
    },
    {
      "id": 9,
      "name": "Squirrel, indian giant",
      "ownerName": "Job",
      "address": "046 Welch Place",
      "areaCode": "45310",
      "rent": 5705,
      "image": "https://robohash.org/porroexrem.png?size=100x100&set=set1",
      "married": true
    },
    {
      "id": 10,
      "name": "Pied avocet",
      "ownerName": "Kerwin",
      "address": "1051 La Follette Court",
      "areaCode": "1111",
      "rent": 1267,
      "image": "https://robohash.org/abestdolor.png?size=100x100&set=set1",
      "married": true
    },
    {
      "id": 11,
      "name": "Kangaroo, jungle",
      "ownerName": "Myca",
      "address": "78 Daystar Terrace",
      "areaCode": "32327",
      "rent": 6158,
      "image": "https://robohash.org/sednesciuntperspiciatis.png?size=100x100&set=set1",
      "married": false
    },
    {
      "id": 12,
      "name": "Wombat, southern hairy-nosed",
      "ownerName": "Valentijn",
      "address": "46892 Portage Avenue",
      "areaCode": "1944",
      "rent": 3599,
      "image": "https://robohash.org/eosisteautem.png?size=100x100&set=set1",
      "married": true
    },
    {
      "id": 13,
      "name": "Dusky gull",
      "ownerName": "Kippy",
      "address": "978 Mesta Drive",
      "areaCode": "45545",
      "rent": 3338,
      "image": "https://robohash.org/minimaadqui.png?size=100x100&set=set1",
      "married": false
    },
    {
      "id": 14,
      "name": "Ring-tailed lemur",
      "ownerName": "Way",
      "address": "904 Warner Junction",
      "areaCode": "623036",
      "rent": 8219,
      "image": "https://robohash.org/autdebitisaut.png?size=100x100&set=set1",
      "married": true
    },
    {
      "id": 15,
      "name": "Wolf, mexican",
      "ownerName": "Muhammad",
      "address": "65 Sutteridge Point",
      "areaCode": "5656",
      "rent": 1865,
      "image": "https://robohash.org/dolorrepellendussaepe.png?size=100x100&set=set1",
      "married": true
    },
    {
      "id": 16,
      "name": "Gazer, sun",
      "ownerName": "Nap",
      "address": "79 Ridgeway Lane",
      "areaCode": "6767",
      "rent": 3460,
      "image": "https://robohash.org/debitisbeataequos.png?size=100x100&set=set1",
      "married": true
    },
    {
      "id": 17,
      "name": "Cougar",
      "ownerName": "Chase",
      "address": "503 Menomonie Street",
      "areaCode": "5656",
      "rent": 4775,
      "image": "https://robohash.org/quaevelitinventore.png?size=100x100&set=set1",
      "married": true
    },
    {
      "id": 18,
      "name": "Dassie",
      "ownerName": "Leonidas",
      "address": "1106 Westend Hill",
      "areaCode": "4545",
      "rent": 1284,
      "image": "https://robohash.org/autettemporibus.png?size=100x100&set=set1",
      "married": true
    },
    {
      "id": 19,
      "name": "Eastern boa constrictor",
      "ownerName": "Kevon",
      "address": "79406 Transport Pass",
      "areaCode": "352762",
      "rent": 9575,
      "image": "https://robohash.org/temporareprehenderitsequi.png?size=100x100&set=set1",
      "married": false
    },
    {
      "id": 20,
      "name": "Weaver, chestnut",
      "ownerName": "Trev",
      "address": "1 Norway Maple Plaza",
      "areaCode": "2519",
      "rent": 1700,
      "image": "https://robohash.org/repellatvoluptatemid.png?size=100x100&set=set1",
      "married": true
    },
    {
      "id": 21,
      "name": "Eagle, african fish",
      "ownerName": "Gordan",
      "address": "0518 Annamark Parkway",
      "areaCode": "24081",
      "rent": 4862,
      "image": "https://robohash.org/autemeosdistinctio.png?size=100x100&set=set1",
      "married": false
    },
    {
      "id": 22,
      "name": "Fox, grey",
      "ownerName": "Sandro",
      "address": "7950 Novick Junction",
      "areaCode": "8888",
      "rent": 1435,
      "image": "https://robohash.org/excepturidolorumreiciendis.png?size=100x100&set=set1",
      "married": true
    },
    {
      "id": 23,
      "name": "Mississippi alligator",
      "ownerName": "Irwinn",
      "address": "818 Green Lane",
      "areaCode": "90909",
      "rent": 4734,
      "image": "https://robohash.org/sedvitaeet.png?size=100x100&set=set1",
      "married": false
    },
    {
      "id": 24,
      "name": "Woodcock, american",
      "ownerName": "Amerigo",
      "address": "26579 Erie Drive",
      "areaCode": "39600000",
      "rent": 3161,
      "image": "https://robohash.org/istenesciuntconsequatur.png?size=100x100&set=set1",
      "married": false
    },
    {
      "id": 25,
      "name": "White-mantled colobus",
      "ownerName": "Alfonso",
      "address": "34080 Memorial Drive",
      "areaCode": "38322",
      "rent": 4828,
      "image": "https://robohash.org/estipsumasperiores.png?size=100x100&set=set1",
      "married": false
    },
    {
      "id": 26,
      "name": "Eastern dwarf mongoose",
      "ownerName": "Murray",
      "address": "1 Nevada Crossing",
      "areaCode": "67675",
      "rent": 3157,
      "image": "https://robohash.org/etquisit.png?size=100x100&set=set1",
      "married": true
    },
    {
      "id": 27,
      "name": "Grey fox",
      "ownerName": "Vaughn",
      "address": "191 Westend Center",
      "areaCode": "366128",
      "rent": 4999,
      "image": "https://robohash.org/assumendavoluptatibusincidunt.png?size=100x100&set=set1",
      "married": false
    },
    {
      "id": 28,
      "name": "Silver gull",
      "ownerName": "Emmery",
      "address": "82786 East Plaza",
      "areaCode": "444555",
      "rent": 9107,
      "image": "https://robohash.org/eaquerepellendusdoloribus.png?size=100x100&set=set1",
      "married": false
    },
    {
      "id": 29,
      "name": "Thomson's gazelle",
      "ownerName": "Shelby",
      "address": "066 Mallard Place",
      "areaCode": "18170000",
      "rent": 1716,
      "image": "https://robohash.org/etdoloremqueoccaecati.png?size=100x100&set=set1",
      "married": false
    },
    {
      "id": 30,
      "name": "Yellow mongoose",
      "ownerName": "Eberto",
      "address": "7 Truax Point",
      "areaCode": "878787",
      "rent": 3337,
      "image": "https://robohash.org/modidictaeligendi.png?size=100x100&set=set1",
      "married": false
    },
    {
      "id": 31,
      "name": "Hartebeest, red",
      "ownerName": "Rolland",
      "address": "462 Donald Circle",
      "areaCode": "67644",
      "rent": 2302,
      "image": "https://robohash.org/aliquidsintautem.png?size=100x100&set=set1",
      "married": true
    },
    {
      "id": 32,
      "name": "Moorhen, purple",
      "ownerName": "Donalt",
      "address": "23 Hoepker Pass",
      "areaCode": "546009",
      "rent": 9575,
      "image": "https://robohash.org/etnihilest.png?size=100x100&set=set1",
      "married": true
    },
    {
      "id": 33,
      "name": "Golden-mantled ground squirrel",
      "ownerName": "Odie",
      "address": "0 Judy Parkway",
      "areaCode": "68798",
      "rent": 1028,
      "image": "https://robohash.org/nisiutnihil.png?size=100x100&set=set1",
      "married": false
    },
    {
      "id": 34,
      "name": "Owl, white-browed",
      "ownerName": "Maurie",
      "address": "50606 Meadow Ridge Parkway",
      "areaCode": "7993115",
      "rent": 8863,
      "image": "https://robohash.org/doloremqueetvoluptates.png?size=100x100&set=set1",
      "married": false
    },
    {
      "id": 35,
      "name": "Collared lizard",
      "ownerName": "Reagen",
      "address": "2 Randy Pass",
      "areaCode": "26807",
      "rent": 8186,
      "image": "https://robohash.org/quodetodio.png?size=100x100&set=set1",
      "married": false
    },
    {
      "id": 36,
      "name": "Eastern cottontail rabbit",
      "ownerName": "Salim",
      "address": "9227 Norway Maple Way",
      "areaCode": "4646689",
      "rent": 5136,
      "image": "https://robohash.org/doloremblanditiisoptio.png?size=100x100&set=set1",
      "married": true
    },
    {
      "id": 37,
      "name": "North American red fox",
      "ownerName": "Romeo",
      "address": "79408 Del Mar Drive",
      "areaCode": "72185",
      "rent": 6369,
      "image": "https://robohash.org/distinctiooccaecatiipsam.png?size=100x100&set=set1",
      "married": true
    },
    {
      "id": 38,
      "name": "Cardinal, red-capped",
      "ownerName": "Ollie",
      "address": "6498 Melody Center",
      "areaCode": "39124",
      "rent": 4502,
      "image": "https://robohash.org/autsintneque.png?size=100x100&set=set1",
      "married": true
    },
    {
      "id": 39,
      "name": "Coqui francolin",
      "ownerName": "Marius",
      "address": "1 Mallory Circle",
      "areaCode": "5857",
      "rent": 1075,
      "image": "https://robohash.org/velitdelectusperspiciatis.png?size=100x100&set=set1",
      "married": false
    },
    {
      "id": 40,
      "name": "Cat, toddy",
      "ownerName": "Cece",
      "address": "02186 Crowley Circle",
      "areaCode": "8089585",
      "rent": 6862,
      "image": "https://robohash.org/remautautem.png?size=100x100&set=set1",
      "married": false
    },
    {
      "id": 41,
      "name": "Dusky rattlesnake",
      "ownerName": "Skylar",
      "address": "14 Crescent Oaks Avenue",
      "areaCode": "780665",
      "rent": 7894,
      "image": "https://robohash.org/cumqueessequi.png?size=100x100&set=set1",
      "married": true
    },
    {
      "id": 42,
      "name": "Screamer, crested",
      "ownerName": "Tyrone",
      "address": "62684 Harper Hill",
      "areaCode": "9580052",
      "rent": 5335,
      "image": "https://robohash.org/explicaboquiqui.png?size=100x100&set=set1",
      "married": false
    },
    {
      "id": 43,
      "name": "Arctic fox",
      "ownerName": "Lucian",
      "address": "6616 Express Crossing",
      "areaCode": "5768797",
      "rent": 8199,
      "image": "https://robohash.org/corruptiducimusofficiis.png?size=100x100&set=set1",
      "married": false
    },
    {
      "id": 44,
      "name": "Egyptian goose",
      "ownerName": "Noland",
      "address": "700 Welch Court",
      "areaCode": "75832 CEDEX 17",
      "rent": 2736,
      "image": "https://robohash.org/estreprehenderiteum.png?size=100x100&set=set1",
      "married": true
    },
    {
      "id": 45,
      "name": "Baboon, gelada",
      "ownerName": "De witt",
      "address": "303 Green Point",
      "areaCode": "78346",
      "rent": 3289,
      "image": "https://robohash.org/etnonadipisci.png?size=100x100&set=set1",
      "married": false
    },
    {
      "id": 46,
      "name": "Yellow-rumped siskin",
      "ownerName": "Bord",
      "address": "02 La Follette Drive",
      "areaCode": "564898",
      "rent": 5311,
      "image": "https://robohash.org/suscipitestet.png?size=100x100&set=set1",
      "married": false
    },
    {
      "id": 47,
      "name": "Koala",
      "ownerName": "Robert",
      "address": "017 Glendale Plaza",
      "areaCode": "57876098",
      "rent": 6891,
      "image": "https://robohash.org/exercitationematqui.png?size=100x100&set=set1",
      "married": true
    },
    {
      "id": 48,
      "name": "Corella, long-billed",
      "ownerName": "Welch",
      "address": "316 Main Terrace",
      "areaCode": "01129",
      "rent": 5079,
      "image": "https://robohash.org/repellendusbeataein.png?size=100x100&set=set1",
      "married": false
    },
    {
      "id": 49,
      "name": "Lesser double-collared sunbird",
      "ownerName": "Guillaume",
      "address": "4102 Sunnyside Way",
      "areaCode": "34357477687",
      "rent": 3660,
      "image": "https://robohash.org/sequiquiafuga.png?size=100x100&set=set1",
      "married": true
    },
    {
      "id": 50,
      "name": "Robin, white-throated",
      "ownerName": "Fabian",
      "address": "1089 Thackeray Way",
      "areaCode": "1555",
      "rent": 5476,
      "image": "https://robohash.org/etexnobis.png?size=100x100&set=set1",
      "married": true
    },
    {
      "id": 51,
      "name": "Black-backed magpie",
      "ownerName": "Kleon",
      "address": "049 Linden Point",
      "areaCode": "667575",
      "rent": 5918,
      "image": "https://robohash.org/itaqueetsed.png?size=100x100&set=set1",
      "married": true
    },
    {
      "id": 52,
      "name": "Asian foreset tortoise",
      "ownerName": "Phil",
      "address": "812 Hazelcrest Drive",
      "areaCode": "46300",
      "rent": 6699,
      "image": "https://robohash.org/architectonamlaudantium.png?size=100x100&set=set1",
      "married": true
    },
    {
      "id": 53,
      "name": "Hen, sage",
      "ownerName": "Egbert",
      "address": "0527 Commercial Alley",
      "areaCode": "2327",
      "rent": 7205,
      "image": "https://robohash.org/eossintoccaecati.png?size=100x100&set=set1",
      "married": true
    },
    {
      "id": 54,
      "name": "Harbor seal",
      "ownerName": "Dolph",
      "address": "5 Dwight Drive",
      "areaCode": "568869",
      "rent": 6312,
      "image": "https://robohash.org/mollitiacupiditateet.png?size=100x100&set=set1",
      "married": true
    },
    {
      "id": 55,
      "name": "Deer, mule",
      "ownerName": "Dalli",
      "address": "2752 Charing Cross Parkway",
      "areaCode": "54545",
      "rent": 7707,
      "image": "https://robohash.org/quiaomnisdolores.png?size=100x100&set=set1",
      "married": true
    },
    {
      "id": 56,
      "name": "Pig-tailed macaque",
      "ownerName": "Butch",
      "address": "647 Saint Paul Parkway",
      "areaCode": "53854",
      "rent": 8476,
      "image": "https://robohash.org/pariaturharumitaque.png?size=100x100&set=set1",
      "married": false
    },
    {
      "id": 57,
      "name": "Bushpig",
      "ownerName": "Gus",
      "address": "222 Dakota Way",
      "areaCode": "9033",
      "rent": 6021,
      "image": "https://robohash.org/optioexpeditavel.png?size=100x100&set=set1",
      "married": false
    },
    {
      "id": 58,
      "name": "Hudsonian godwit",
      "ownerName": "Gun",
      "address": "99 Sullivan Drive",
      "areaCode": "2433",
      "rent": 9065,
      "image": "https://robohash.org/cumeumerror.png?size=100x100&set=set1",
      "married": true
    },
    {
      "id": 59,
      "name": "Ground monitor (unidentified)",
      "ownerName": "Briano",
      "address": "7 Clyde Gallagher Parkway",
      "areaCode": "40070",
      "rent": 5012,
      "image": "https://robohash.org/dolorumnonnatus.png?size=100x100&set=set1",
      "married": true
    },
    {
      "id": 60,
      "name": "Common green iguana",
      "ownerName": "Harold",
      "address": "60 Kensington Point",
      "areaCode": "7548510",
      "rent": 3664,
      "image": "https://robohash.org/omnissitiure.png?size=100x100&set=set1",
      "married": false
    },
    {
      "id": 61,
      "name": "Bee-eater, white-fronted",
      "ownerName": "Farlay",
      "address": "3116 Mosinee Plaza",
      "areaCode": "659519",
      "rent": 5815,
      "image": "https://robohash.org/molestiaecommodiconsequuntur.png?size=100x100&set=set1",
      "married": false
    },
    {
      "id": 62,
      "name": "Spoonbill, european",
      "ownerName": "Gerhard",
      "address": "32097 Macpherson Avenue",
      "areaCode": "3405425",
      "rent": 6909,
      "image": "https://robohash.org/recusandaerepellendusnumquam.png?size=100x100&set=set1",
      "married": false
    },
    {
      "id": 63,
      "name": "Snake, carpet",
      "ownerName": "Danya",
      "address": "935 Daystar Court",
      "areaCode": "7930922",
      "rent": 7315,
      "image": "https://robohash.org/repellendusametcumque.png?size=100x100&set=set1",
      "married": true
    },
    {
      "id": 64,
      "name": "Armadillo, common long-nosed",
      "ownerName": "Tiler",
      "address": "80 Thackeray Hill",
      "areaCode": "675648870",
      "rent": 7001,
      "image": "https://robohash.org/exercitationemutaliquid.png?size=100x100&set=set1",
      "married": true
    },
    {
      "id": 65,
      "name": "Fox, asian red",
      "ownerName": "Jacques",
      "address": "00731 Maple Wood Center",
      "areaCode": "33355",
      "rent": 1959,
      "image": "https://robohash.org/corporisutlibero.png?size=100x100&set=set1",
      "married": true
    },
    {
      "id": 66,
      "name": "Wild water buffalo",
      "ownerName": "Efren",
      "address": "2 Pennsylvania Terrace",
      "areaCode": "566989",
      "rent": 3877,
      "image": "https://robohash.org/voluptatemnatusarchitecto.png?size=100x100&set=set1",
      "married": false
    },
    {
      "id": 67,
      "name": "Dove, galapagos",
      "ownerName": "Bartram",
      "address": "205 Merrick Place",
      "areaCode": "9050003",
      "rent": 2470,
      "image": "https://robohash.org/magniassumendaquo.png?size=100x100&set=set1",
      "married": true
    },
    {
      "id": 68,
      "name": "Agile wallaby",
      "ownerName": "Demetre",
      "address": "88 Granby Street",
      "areaCode": "564747",
      "rent": 1496,
      "image": "https://robohash.org/numquamremdolores.png?size=100x100&set=set1",
      "married": false
    },
    {
      "id": 69,
      "name": "White-winged dove",
      "ownerName": "Bruce",
      "address": "27 Buena Vista Plaza",
      "areaCode": "2442",
      "rent": 3075,
      "image": "https://robohash.org/commodisuscipitalias.png?size=100x100&set=set1",
      "married": false
    },
    {
      "id": 70,
      "name": "Crested porcupine",
      "ownerName": "Lewiss",
      "address": "5024 Stang Center",
      "areaCode": "618206",
      "rent": 8588,
      "image": "https://robohash.org/eosdebitisfugit.png?size=100x100&set=set1",
      "married": false
    },
    {
      "id": 71,
      "name": "Loris, slender",
      "ownerName": "Huey",
      "address": "56 Maple Wood Trail",
      "areaCode": "9491742",
      "rent": 5038,
      "image": "https://robohash.org/autquiet.png?size=100x100&set=set1",
      "married": false
    },
    {
      "id": 72,
      "name": "Wallaby, euro",
      "ownerName": "Holmes",
      "address": "72 Lien Trail",
      "areaCode": "8115",
      "rent": 8761,
      "image": "https://robohash.org/temporeeiusdolorem.png?size=100x100&set=set1",
      "married": true
    },
    {
      "id": 73,
      "name": "Hoffman's sloth",
      "ownerName": "Gualterio",
      "address": "664 Waxwing Place",
      "areaCode": "45658",
      "rent": 5573,
      "image": "https://robohash.org/nihilinciduntquos.png?size=100x100&set=set1",
      "married": true
    },
    {
      "id": 74,
      "name": "Squirrel, grey-footed",
      "ownerName": "Gottfried",
      "address": "7956 Hoffman Trail",
      "areaCode": "56868",
      "rent": 4956,
      "image": "https://robohash.org/dolorenimquibusdam.png?size=100x100&set=set1",
      "married": true
    },
    {
      "id": 75,
      "name": "Hyena, spotted",
      "ownerName": "Allayne",
      "address": "21779 Paget Point",
      "areaCode": "64779",
      "rent": 7650,
      "image": "https://robohash.org/voluptatesfuganesciunt.png?size=100x100&set=set1",
      "married": true
    },
    {
      "id": 76,
      "name": "Cat, native",
      "ownerName": "Rollin",
      "address": "89 Maryland Terrace",
      "areaCode": "585960",
      "rent": 3791,
      "image": "https://robohash.org/natusautatque.png?size=100x100&set=set1",
      "married": true
    },
    {
      "id": 77,
      "name": "Turaco, violet-crested",
      "ownerName": "Munroe",
      "address": "100 Blackbird Park",
      "areaCode": "3343789",
      "rent": 1225,
      "image": "https://robohash.org/numquamutet.png?size=100x100&set=set1",
      "married": false
    },
    {
      "id": 78,
      "name": "Hanuman langur",
      "ownerName": "Basil",
      "address": "5260 Anderson Junction",
      "areaCode": "7604",
      "rent": 5086,
      "image": "https://robohash.org/sequibeataequidem.png?size=100x100&set=set1",
      "married": true
    },
    {
      "id": 79,
      "name": "Robin, white-throated",
      "ownerName": "Lonnie",
      "address": "20811 Tennessee Street",
      "areaCode": "0706758648",
      "rent": 1621,
      "image": "https://robohash.org/autdelectusillo.png?size=100x100&set=set1",
      "married": false
    },
    {
      "id": 80,
      "name": "Hottentot teal",
      "ownerName": "Rufus",
      "address": "61 Duke Place",
      "areaCode": "11892",
      "rent": 2378,
      "image": "https://robohash.org/autdolorvero.png?size=100x100&set=set1",
      "married": false
    },
    {
      "id": 81,
      "name": "Purple moorhen",
      "ownerName": "Herold",
      "address": "39056 Mifflin Alley",
      "areaCode": "67875865747",
      "rent": 8378,
      "image": "https://robohash.org/utnumquamdoloremque.png?size=100x100&set=set1",
      "married": false
    },
    {
      "id": 82,
      "name": "Genet, common",
      "ownerName": "Earle",
      "address": "2 Buell Terrace",
      "areaCode": "2310",
      "rent": 3563,
      "image": "https://robohash.org/fugadoloremcorrupti.png?size=100x100&set=set1",
      "married": false
    },
    {
      "id": 83,
      "name": "Sun gazer",
      "ownerName": "Ellis",
      "address": "031 Jenna Center",
      "areaCode": "35674",
      "rent": 1119,
      "image": "https://robohash.org/officiaenimfacere.png?size=100x100&set=set1",
      "married": false
    },
    {
      "id": 84,
      "name": "Elk, Wapiti",
      "ownerName": "Norris",
      "address": "5496 Drewry Park",
      "areaCode": "468",
      "rent": 6340,
      "image": "https://robohash.org/maximeutquibusdam.png?size=100x100&set=set1",
      "married": true
    },
    {
      "id": 85,
      "name": "Gambel's quail",
      "ownerName": "Tuckie",
      "address": "3232 Larry Road",
      "areaCode": "3567",
      "rent": 6062,
      "image": "https://robohash.org/sapienteautemcupiditate.png?size=100x100&set=set1",
      "married": true
    },
    {
      "id": 86,
      "name": "Pied kingfisher",
      "ownerName": "Welsh",
      "address": "13 Transport Hill",
      "areaCode": "364779",
      "rent": 3940,
      "image": "https://robohash.org/enimaccusantiumquis.png?size=100x100&set=set1",
      "married": false
    },
    {
      "id": 87,
      "name": "Shrew, mandras tree",
      "ownerName": "Demetrius",
      "address": "222 Bunting Court",
      "areaCode": "70954",
      "rent": 1560,
      "image": "https://robohash.org/providentnullaaccusamus.png?size=100x100&set=set1",
      "married": false
    },
    {
      "id": 88,
      "name": "Orca",
      "ownerName": "Constantin",
      "address": "82358 Miller Point",
      "areaCode": "6975847",
      "rent": 4720,
      "image": "https://robohash.org/rationeestdoloribus.png?size=100x100&set=set1",
      "married": true
    },
    {
      "id": 89,
      "name": "Brown hyena",
      "ownerName": "Allie",
      "address": "2 Stang Crossing",
      "areaCode": "365785",
      "rent": 3483,
      "image": "https://robohash.org/numquamestconsequatur.png?size=100x100&set=set1",
      "married": true
    },
    {
      "id": 90,
      "name": "Baboon, chacma",
      "ownerName": "Vic",
      "address": "84210 Butterfield Hill",
      "areaCode": "875898",
      "rent": 2459,
      "image": "https://robohash.org/omnisdelectusqui.png?size=100x100&set=set1",
      "married": false
    },
    {
      "id": 91,
      "name": "Greater flamingo",
      "ownerName": "Felic",
      "address": "0251 Amoth Lane",
      "areaCode": "48475000",
      "rent": 1982,
      "image": "https://robohash.org/solutaaliquidqui.png?size=100x100&set=set1",
      "married": false
    },
    {
      "id": 92,
      "name": "Stork, greater adjutant",
      "ownerName": "Tabbie",
      "address": "4152 Novick Court",
      "areaCode": "475879",
      "rent": 2058,
      "image": "https://robohash.org/nesciuntmaximesint.png?size=100x100&set=set1",
      "married": true
    },
    {
      "id": 93,
      "name": "Squirrel, malabar",
      "ownerName": "Nealson",
      "address": "8 Forster Avenue",
      "areaCode": "01061",
      "rent": 8211,
      "image": "https://robohash.org/quamnatusqui.png?size=100x100&set=set1",
      "married": true
    },
    {
      "id": 94,
      "name": "Butterfly (unidentified)",
      "ownerName": "Shadow",
      "address": "75910 Dexter Junction",
      "areaCode": "4786",
      "rent": 6685,
      "image": "https://robohash.org/temporaharumaccusantium.png?size=100x100&set=set1",
      "married": true
    },
    {
      "id": 95,
      "name": "Agama lizard (unidentified)",
      "ownerName": "Chevalier",
      "address": "7 Moland Road",
      "areaCode": "11801",
      "rent": 8765,
      "image": "https://robohash.org/oditfugitest.png?size=100x100&set=set1",
      "married": true
    },
    {
      "id": 96,
      "name": "Tyrant flycatcher",
      "ownerName": "Ozzie",
      "address": "8 Maryland Lane",
      "areaCode": "58676860",
      "rent": 1019,
      "image": "https://robohash.org/estbeataeexplicabo.png?size=100x100&set=set1",
      "married": true
    },
    {
      "id": 97,
      "name": "Nighthawk, common",
      "ownerName": "Schuyler",
      "address": "4 Di Loreto Plaza",
      "areaCode": "9696522",
      "rent": 2264,
      "image": "https://robohash.org/corporisitaqueaut.png?size=100x100&set=set1",
      "married": true
    },
    {
      "id": 98,
      "name": "Cormorant, large",
      "ownerName": "Raff",
      "address": "62 Loeprich Plaza",
      "areaCode": "3646858",
      "rent": 2267,
      "image": "https://robohash.org/veniamquiratione.png?size=100x100&set=set1",
      "married": false
    },
    {
      "id": 99,
      "name": "Snowy sheathbill",
      "ownerName": "Cammy",
      "address": "31501 Bonner Parkway",
      "areaCode": "529159",
      "rent": 8595,
      "image": "https://robohash.org/namquoconsectetur.png?size=100x100&set=set1",
      "married": true
    },
    {
      "id": 100,
      "name": "White-nosed coatimundi",
      "ownerName": "Waldemar",
      "address": "5820 Sage Lane",
      "areaCode": "6779696",
      "rent": 7022,
      "image": "https://robohash.org/quianumquammolestias.png?size=100x100&set=set1",
      "married": true
    },
    {
      "name": "11",
      "ownerName": "11",
      "address": "11",
      "rent": "11",
      "image": "11",
      "married": true,
      "areaCode": "11",
      "id": 101
    },
    {
      "name": "11",
      "ownerName": "11",
      "address": "11",
      "rent": "11",
      "image": "11",
      "married": true,
      "areaCode": "11",
      "id": 102
    },
    {
      "name": "23",
      "ownerName": "23",
      "address": "23",
      "rent": "23",
      "image": "23",
      "married": true,
      "areaCode": "23",
      "id": 103
    }
  ]
}